[Satellite]
VERSION=1.1
NAME=SL-8 R/B
NICKNAME=SL-8 R/B
TLE1=1 11574U 79089B   15054.87611150  .00000263  00000-0  90961-4 0  9995
TLE2=2 11574  74.0724 337.2837 0014826  97.5887 262.6953 14.40408318855578
